[
    {
        "OBJECT_NAME": "NAVSTAR 59 (USA 192)",
        "OBJECT_ID": "2006-052A",
        "EPOCH": "2026-07-21T07:44:18.415104",
        "MEAN_MOTION": 2.00560107,
        "ECCENTRICITY": 0.00847493,
        "INCLINATION": 54.9318,
        "RA_OF_ASC_NODE": 212.653,
        "ARG_OF_PERICENTER": 91.011,
        "MEAN_ANOMALY": 269.9907,
        "EPHEMERIS_TYPE": 0,
        "CLASSIFICATION_TYPE": "U",
        "NORAD_CAT_ID": 29601,
        "ELEMENT_SET_NO": 999,
        "REV_AT_EPOCH": 14409,
        "BSTAR": 0,
        "MEAN_MOTION_DOT": 7.5e-07,
        "MEAN_MOTION_DDOT": 0
    },
    {
        "OBJECT_NAME": "NAVSTAR 60 (USA 196)",
        "OBJECT_ID": "2007-047A",
        "EPOCH": "2026-07-22T03:02:46.703616",
        "MEAN_MOTION": 2.00553746,
        "ECCENTRICITY": 0.01680192,
        "INCLINATION": 54.1211,
        "RA_OF_ASC_NODE": 78.6253,
        "ARG_OF_PERICENTER": 88.1578,
        "MEAN_ANOMALY": 273.8213,
        "EPHEMERIS_TYPE": 0,
        "CLASSIFICATION_TYPE": "U",
        "NORAD_CAT_ID": 32260,
        "ELEMENT_SET_NO": 999,
        "REV_AT_EPOCH": 13751,
        "BSTAR": 0,
        "MEAN_MOTION_DOT": -7.3e-07,
        "MEAN_MOTION_DDOT": 0
    },
    {
        "OBJECT_NAME": "NAVSTAR 61 (USA 199)",
        "OBJECT_ID": "2007-062A",
        "EPOCH": "2026-07-22T10:43:53.755680",
        "MEAN_MOTION": 2.00562126,
        "ECCENTRICITY": 0.00360682,
        "INCLINATION": 55.0037,
        "RA_OF_ASC_NODE": 272.7334,
        "ARG_OF_PERICENTER": 168.2064,
        "MEAN_ANOMALY": 191.1622,
        "EPHEMERIS_TYPE": 0,
        "CLASSIFICATION_TYPE": "U",
        "NORAD_CAT_ID": 32384,
        "ELEMENT_SET_NO": 999,
        "REV_AT_EPOCH": 13621,
        "BSTAR": 0,
        "MEAN_MOTION_DOT": -3.4e-07,
        "MEAN_MOTION_DDOT": 0
    },
    {
        "OBJECT_NAME": "NAVSTAR 62 (USA 201)",
        "OBJECT_ID": "2008-012A",
        "EPOCH": "2026-07-21T12:52:23.204352",
        "MEAN_MOTION": 2.00573366,
        "ECCENTRICITY": 0.0211735,
        "INCLINATION": 54.5004,
        "RA_OF_ASC_NODE": 148.5525,
        "ARG_OF_PERICENTER": 248.2108,
        "MEAN_ANOMALY": 109.5034,
        "EPHEMERIS_TYPE": 0,
        "CLASSIFICATION_TYPE": "U",
        "NORAD_CAT_ID": 32711,
        "ELEMENT_SET_NO": 999,
        "REV_AT_EPOCH": 13444,
        "BSTAR": 0,
        "MEAN_MOTION_DOT": 2.4e-07,
        "MEAN_MOTION_DDOT": 0
    },
    {
        "OBJECT_NAME": "NAVSTAR 63 (USA 203)",
        "OBJECT_ID": "2009-014A",
        "EPOCH": "2026-07-21T23:01:13.895904",
        "MEAN_MOTION": 2.00572149,
        "ECCENTRICITY": 0.01443443,
        "INCLINATION": 54.4855,
        "RA_OF_ASC_NODE": 209.2604,
        "ARG_OF_PERICENTER": 61.2598,
        "MEAN_ANOMALY": 303.3886,
        "EPHEMERIS_TYPE": 0,
        "CLASSIFICATION_TYPE": "U",
        "NORAD_CAT_ID": 34661,
        "ELEMENT_SET_NO": 999,
        "REV_AT_EPOCH": 12698,
        "BSTAR": 0,
        "MEAN_MOTION_DOT": 8.2e-07,
        "MEAN_MOTION_DDOT": 0
    },
    {
        "OBJECT_NAME": "NAVSTAR 64 (USA 206)",
        "OBJECT_ID": "2009-043A",
        "EPOCH": "2026-07-22T12:54:41.920416",
        "MEAN_MOTION": 2.00552541,
        "ECCENTRICITY": 0.00536465,
        "INCLINATION": 56.2325,
        "RA_OF_ASC_NODE": 26.0647,
        "ARG_OF_PERICENTER": 84.7105,
        "MEAN_ANOMALY": 285.5515,
        "EPHEMERIS_TYPE": 0,
        "CLASSIFICATION_TYPE": "U",
        "NORAD_CAT_ID": 35752,
        "ELEMENT_SET_NO": 999,
        "REV_AT_EPOCH": 12407,
        "BSTAR": 0,
        "MEAN_MOTION_DOT": -8.2e-07,
        "MEAN_MOTION_DDOT": 0
    },
    {
        "OBJECT_NAME": "NAVSTAR 65 (USA 213)",
        "OBJECT_ID": "2010-022A",
        "EPOCH": "2026-07-22T08:34:49.345248",
        "MEAN_MOTION": 2.00564201,
        "ECCENTRICITY": 0.01269015,
        "INCLINATION": 54.2681,
        "RA_OF_ASC_NODE": 207.1453,
        "ARG_OF_PERICENTER": 66.1639,
        "MEAN_ANOMALY": 294.0229,
        "EPHEMERIS_TYPE": 0,
        "CLASSIFICATION_TYPE": "U",
        "NORAD_CAT_ID": 36585,
        "ELEMENT_SET_NO": 999,
        "REV_AT_EPOCH": 11829,
        "BSTAR": 0,
        "MEAN_MOTION_DOT": 8.5e-07,
        "MEAN_MOTION_DDOT": 0
    },
    {
        "OBJECT_NAME": "NAVSTAR 66 (USA 232)",
        "OBJECT_ID": "2011-036A",
        "EPOCH": "2026-07-21T19:11:23.222112",
        "MEAN_MOTION": 2.00561984,
        "ECCENTRICITY": 0.01414808,
        "INCLINATION": 56.547,
        "RA_OF_ASC_NODE": 330.6735,
        "ARG_OF_PERICENTER": 62.932,
        "MEAN_ANOMALY": 320.5408,
        "EPHEMERIS_TYPE": 0,
        "CLASSIFICATION_TYPE": "U",
        "NORAD_CAT_ID": 37753,
        "ELEMENT_SET_NO": 999,
        "REV_AT_EPOCH": 10997,
        "BSTAR": 0,
        "MEAN_MOTION_DOT": -1.11e-06,
        "MEAN_MOTION_DDOT": 0
    },
    {
        "OBJECT_NAME": "NAVSTAR 67 (USA 239)",
        "OBJECT_ID": "2012-053A",
        "EPOCH": "2026-07-21T05:14:54.394368",
        "MEAN_MOTION": 2.0056809,
        "ECCENTRICITY": 0.01824077,
        "INCLINATION": 53.5902,
        "RA_OF_ASC_NODE": 142.205,
        "ARG_OF_PERICENTER": 66.3332,
        "MEAN_ANOMALY": 295.5491,
        "EPHEMERIS_TYPE": 0,
        "CLASSIFICATION_TYPE": "U",
        "NORAD_CAT_ID": 38833,
        "ELEMENT_SET_NO": 999,
        "REV_AT_EPOCH": 10012,
        "BSTAR": 0,
        "MEAN_MOTION_DOT": 1.4e-07,
        "MEAN_MOTION_DDOT": 0
    },
    {
        "OBJECT_NAME": "NAVSTAR 68 (USA 242)",
        "OBJECT_ID": "2013-023A",
        "EPOCH": "2026-07-22T02:00:32.597568",
        "MEAN_MOTION": 2.00563446,
        "ECCENTRICITY": 0.01414045,
        "INCLINATION": 54.4778,
        "RA_OF_ASC_NODE": 267.5502,
        "ARG_OF_PERICENTER": 51.1079,
        "MEAN_ANOMALY": 310.2126,
        "EPHEMERIS_TYPE": 0,
        "CLASSIFICATION_TYPE": "U",
        "NORAD_CAT_ID": 39166,
        "ELEMENT_SET_NO": 999,
        "REV_AT_EPOCH": 9658,
        "BSTAR": 0,
        "MEAN_MOTION_DOT": -2.5e-07,
        "MEAN_MOTION_DDOT": 0
    },
    {
        "OBJECT_NAME": "NAVSTAR 69 (USA 248)",
        "OBJECT_ID": "2014-008A",
        "EPOCH": "2026-07-22T02:03:14.362560",
        "MEAN_MOTION": 2.00562088,
        "ECCENTRICITY": 0.00840292,
        "INCLINATION": 53.6583,
        "RA_OF_ASC_NODE": 147.8962,
        "ARG_OF_PERICENTER": 231.5745,
        "MEAN_ANOMALY": 127.6466,
        "EPHEMERIS_TYPE": 0,
        "CLASSIFICATION_TYPE": "U",
        "NORAD_CAT_ID": 39533,
        "ELEMENT_SET_NO": 999,
        "REV_AT_EPOCH": 9038,
        "BSTAR": 0,
        "MEAN_MOTION_DOT": 1.6e-07,
        "MEAN_MOTION_DDOT": 0
    },
    {
        "OBJECT_NAME": "NAVSTAR 70 (USA 251)",
        "OBJECT_ID": "2014-026A",
        "EPOCH": "2026-07-22T08:41:04.373088",
        "MEAN_MOTION": 2.00558522,
        "ECCENTRICITY": 0.00381894,
        "INCLINATION": 56.4791,
        "RA_OF_ASC_NODE": 330.1484,
        "ARG_OF_PERICENTER": 325.5817,
        "MEAN_ANOMALY": 34.1763,
        "EPHEMERIS_TYPE": 0,
        "CLASSIFICATION_TYPE": "U",
        "NORAD_CAT_ID": 39741,
        "ELEMENT_SET_NO": 999,
        "REV_AT_EPOCH": 8924,
        "BSTAR": 0,
        "MEAN_MOTION_DOT": -1.11e-06,
        "MEAN_MOTION_DDOT": 0
    },
    {
        "OBJECT_NAME": "NAVSTAR 71 (USA 256)",
        "OBJECT_ID": "2014-045A",
        "EPOCH": "2026-07-21T22:54:59.869440",
        "MEAN_MOTION": 2.00560793,
        "ECCENTRICITY": 0.00347204,
        "INCLINATION": 55.3757,
        "RA_OF_ASC_NODE": 87.0795,
        "ARG_OF_PERICENTER": 118.5048,
        "MEAN_ANOMALY": 241.8949,
        "EPHEMERIS_TYPE": 0,
        "CLASSIFICATION_TYPE": "U",
        "NORAD_CAT_ID": 40105,
        "ELEMENT_SET_NO": 999,
        "REV_AT_EPOCH": 8677,
        "BSTAR": 0,
        "MEAN_MOTION_DOT": -6.7e-07,
        "MEAN_MOTION_DDOT": 0
    }
]
